NORAD_CAT_ID,OBJECT_NAME,OBJECT_TYPE,EPOCH,MEAN_MOTION,ECCENTRICITY,INCLINATION,RA_OF_ASC_NODE,ARG_OF_PERICENTER,MEAN_ANOMALY,BSTAR,MEAN_MOTION_DOT,MEAN_MOTION_DDOT,TLE_LINE0,TLE_LINE1,TLE_LINE2,SEMIMAJOR_AXIS,PERIOD,APOGEE,PERIGEE,DECAYED
51121.0,STARLINK-3399,PAYLOAD,2022-08-28 10:32:16,15.08834018,0.000185,53.2176,316.7829,51.31800000000001,308.7977,-0.00011645,-2.141e-05,0.0,0 STARLINK-3399,1 51121U 22005T   22240.43908540 -.00002141  00000-0 -11645-3 0  9992,2 51121  53.2176 316.7829 0001850  51.3180 308.7977 15.08834018 34246,6917.899,95.438,541.043,538.484,0.0
51121.0,STARLINK-3399,PAYLOAD,2022-08-29 10:23:04,15.08825092,0.0001899,53.2173,312.3226,57.3971,302.7205,0.00012864,1.759e-05,0.0,0 STARLINK-3399,1 51121U 22005T   22241.43268692  .00001759  00000-0  12864-3 0  9996,2 51121  53.2173 312.3226 0001899  57.3971 302.7205 15.08825092 34399,6917.926,95.438,541.105,538.477,0.0
51121.0,STARLINK-3399,PAYLOAD,2022-08-30 03:52:18,15.08836181,0.0001908,53.2174,309.0514,49.6426,310.4733,0.00010961,1.457e-05,0.0,0 STARLINK-3399,1 51121U 22005T   22242.16132115  .00001457  00000-0  10961-3 0  9998,2 51121  53.2174 309.0514 0001908  49.6426 310.4733 15.08836181 35612,6917.892,95.438,541.077,538.437,0.0
51121.0,STARLINK-3399,PAYLOAD,2022-08-30 11:49:13,15.08841027,0.0001976999999999,53.2174,307.5649,47.6556,312.4604,0.00013504,1.862e-05,0.0,0 STARLINK-3399,1 51121U 22005T   22242.49251774  .00001862  00000-0  13504-3 0  9993,2 51121  53.2174 307.5649 0001977  47.6556 312.4604 15.08841027 34558,6917.877,95.437,541.11,538.375,0.0
51121.0,STARLINK-3399,PAYLOAD,2022-08-30 18:10:46,15.0883965,0.0002326,53.2173,306.3783,37.9856,322.1299,9.7909e-05,1.27e-05,0.0,0 STARLINK-3399,1 51121U 22005T   22242.75748128  .00001270  00000-0  97909-4 0  9991,2 51121  53.2173 306.3783 0002326  37.9856 322.1299 15.08839650 34598,6917.880999999999,95.438,541.356,538.137,0.0
51121.0,STARLINK-3399,PAYLOAD,2022-08-31 11:40:01,15.088385999999998,0.0002002,53.2174,303.1061,39.5636,320.5502,7.6472e-06,-1.67e-06,0.0,0 STARLINK-3399,1 51121U 22005T   22243.48612386 -.00000167  00000-0  76472-5 0  9996,2 51121  53.2174 303.1061 0002002  39.5636 320.5502 15.08838600 35817,6917.885,95.438,541.135,538.365,0.0
51121.0,STARLINK-3399,PAYLOAD,2022-09-01 01:58:28,15.08846147,0.0001834,53.2172,300.4284,45.0821,315.032,-7.232e-06,-4.03e-06,0.0,0 STARLINK-3399,1 51121U 22005T   22244.08227781 -.00000403  00000-0 -72320-5 0  9996,2 51121  53.2172 300.4284 0001834  45.0821 315.0320 15.08846147 35904,6917.861999999999,95.437,540.995,538.4580000000002,0.0
51121.0,STARLINK-3399,PAYLOAD,2022-09-01 13:06:10,15.08846294,0.0001853,53.2172,298.347,44.6041,315.51,-4.4995e-06,-3.6000000000000007e-06,0.0,0 STARLINK-3399,1 51121U 22005T   22244.54595558 -.00000360  00000-0 -44995-5 0  9996,2 51121  53.2172 298.3470 0001853  44.6041 315.5100 15.08846294 34864,6917.861,95.437,541.008,538.444,0.0
51121.0,STARLINK-3399,PAYLOAD,2022-09-02 01:49:15,15.08887444,0.0002015,53.217,295.9678,50.0756,310.0413,-0.00080678,-0.00013122,0.0,0 STARLINK-3399,1 51121U 22005T   22245.07587320 -.00013122  00000-0 -80678-3 0  9999,2 51121  53.2170 295.9678 0002015  50.0756 310.0413 15.08887444 36052,6917.735,95.435,540.994,538.206,0.0
51121.0,STARLINK-3399,PAYLOAD,2022-09-02 09:46:11,15.08834614,0.0001740999999999,53.2168,294.4808,43.9023,316.2108,-4.9932e-06,-3.68e-06,0.0,0 STARLINK-3399,1 51121U 22005T   22245.40708329 -.00000368  00000-0 -49932-5 0  9998,2 51121  53.2168 294.4808 0001741  43.9023 316.2108 15.08834614 34992,6917.897,95.438,540.966,538.557,0.0
51121.0,STARLINK-3399,PAYLOAD,2022-09-03 09:36:58,15.08843046,0.0001781,53.2167,290.0198,42.2977,317.8152,-6.7012e-06,-3.95e-06,0.0,0 STARLINK-3399,1 51121U 22005T   22246.40067862 -.00000395  00000-0 -67012-5 0  9998,2 51121  53.2167 290.0198 0001781  42.2977 317.8152 15.08843046 35142,6917.871,95.437,540.9680000000002,538.504,0.0
51121.0,STARLINK-3399,PAYLOAD,2022-09-03 23:55:27,15.08829096,0.0001824,53.2163,287.3445,40.219,319.8937,2.0601e-05,4e-07,0.0,0 STARLINK-3399,1 51121U 22005T   22246.99684757  .00000040  00000-0  20601-4 0  9997,2 51121  53.2163 287.3445 0001824  40.2190 319.8937 15.08829096 36340,6917.9140000000025,95.438,541.0409999999998,538.5169999999998,0.0
51121.0,STARLINK-3399,PAYLOAD,2022-09-04 09:27:46,15.08828109,0.0001781999999999,53.2163,285.5601,39.9892,320.1231,-1.8553e-05,-5.83e-06,0.0,0 STARLINK-3399,1 51121U 22005T   22247.39429195 -.00000583  00000-0 -18553-4 0  9992,2 51121  53.2163 285.5601 0001782  39.9892 320.1231 15.08828109 35290,6917.917,95.438,541.015,538.549,0.0
51121.0,STARLINK-3399,PAYLOAD,2022-09-05 02:57:00,15.0884024,0.00018,53.2162,282.2889,39.0939,321.0183,4.3903e-05,4.11e-06,0.0,0 STARLINK-3399,1 51121U 22005T   22248.12292503  .00000411  00000-0  43903-4 0  9990,2 51121  53.2162 282.2889 0001800  39.0939 321.0183 15.08840240 36517,6917.88,95.438,540.99,538.499,0.0
51121.0,STARLINK-3399,PAYLOAD,2022-09-05 07:43:09,15.08842947,0.0001831,53.2162,281.3966,39.8155,320.2972,4.4643e-05,4.22e-06,0.0,0 STARLINK-3399,1 51121U 22005T   22248.32164328  .00000422  00000-0  44643-4 0  9999,2 51121  53.2162 281.3966 0001831  39.8155 320.2972 15.08842947 35438,6917.871,95.437,541.003,538.47,0.0
51121.0,STARLINK-3399,PAYLOAD,2022-09-06 10:44:44,15.08819509,0.0001865,53.2165,276.3413,37.9173,322.195,-4.6529e-05,-1.028e-05,0.0,0 STARLINK-3399,1 51121U 22005T   22249.44774199 -.00001028  00000-0 -46529-4 0  9996,2 51121  53.2165 276.3413 0001865  37.9173 322.1950 15.08819509 35602,6917.943,95.439,541.0980000000002,538.518,0.0
51121.0,STARLINK-3399,PAYLOAD,2022-09-07 01:03:13,15.08829434,0.0002055,53.2163,273.665,37.4317,322.6818,-7.5655e-05,-1.492e-05,0.0,0 STARLINK-3399,1 51121U 22005T   22250.04390246 -.00001492  00000-0 -75655-4 0  9998,2 51121  53.2163 273.6650 0002055  37.4317 322.6818 15.08829434 36809,6917.913000000001,95.438,541.1990000000002,538.356,0.0
51121.0,STARLINK-3399,PAYLOAD,2022-09-07 10:35:31,15.08833496,0.0002129,53.2166,271.8803,37.6723,322.4418,-5.5904e-05,-1.178e-05,0.0,0 STARLINK-3399,1 51121U 22005T   22250.44134101 -.00001178  00000-0 -55904-4 0  9994,2 51121  53.2166 271.8803 0002129  37.6723 322.4418 15.08833496 35757,6917.9,95.438,541.238,538.2919999999998,0.0
51121.0,STARLINK-3399,PAYLOAD,2022-09-07 23:18:36,15.08843619,0.0002017,53.2166,269.5011,38.3491,321.7645,-0.00011781,-2.163e-05,0.0,0 STARLINK-3399,1 51121U 22005T   22250.97125819 -.00002163  00000-0 -11781-3 0  9997,2 51121  53.2166 269.5011 0002017  38.3491 321.7645 15.08843619 36942,6917.869000000002,95.437,541.13,538.339,0.0
51121.0,STARLINK-3399,PAYLOAD,2022-09-08 07:15:32,15.08831201,0.0001984,53.2167,268.0143,40.3963,319.7177,0.00010375,1.363e-05,0.0,0 STARLINK-3399,1 51121U 22005T   22251.30245936  .00001363  00000-0  10375-3 0  9995,2 51121  53.2167 268.0143 0001984  40.3963 319.7177 15.08831201 35885,6917.906999999997,95.438,541.145,538.4,0.0
51121.0,STARLINK-3399,PAYLOAD,2022-09-08 18:23:14,15.08835331,0.0001979,53.2166,265.9328,41.6491,318.4652,0.00013345,1.836e-05,0.0,0 STARLINK-3399,1 51121U 22005T   22251.76613765  .00001836  00000-0  13345-3 0  9999,2 51121  53.2166 265.9328 0001979  41.6491 318.4652 15.08835331 35959,6917.895,95.438,541.129,538.391,0.0
51121.0,STARLINK-3399,PAYLOAD,2022-09-09 02:20:09,15.08841879,0.0002021999999999,53.2165,264.446,41.5384,318.5762,0.00013582,1.874e-05,0.0,0 STARLINK-3399,1 51121U 22005T   22252.09733415  .00001874  00000-0  13582-3 0  9996,2 51121  53.2165 264.4460 0002022  41.5384 318.5762 15.08841879 37116,6917.875,95.437,541.138,538.341,0.0
51121.0,STARLINK-3399,PAYLOAD,2022-09-09 07:06:18,15.08844132,0.0002035,53.2165,263.5539,41.9199,318.1949,0.00014741,2.059e-05,0.0,0 STARLINK-3399,1 51121U 22005T   22252.29605216  .00002059  00000-0  14741-3 0  9999,2 51121  53.2165 263.5539 0002035  41.9199 318.1949 15.08844132 36033,6917.868,95.437,541.141,538.325,0.0
51121.0,STARLINK-3399,PAYLOAD,2022-09-10 10:07:52,15.088436800000002,0.0002162,53.216,258.4998,42.6109,317.505,4.0372e-05,3.54e-06,0.0,0 STARLINK-3399,1 51121U 22005T   22253.42213511  .00000354  00000-0  40372-4 0  9994,2 51121  53.2160 258.4998 0002162  42.6109 317.5050 15.08843680 36202,6917.869000000002,95.437,541.23,538.238,0.0
51121.0,STARLINK-3399,PAYLOAD,2022-09-11 03:37:06,15.08847976,0.0001955999999999,53.2166,255.2271,46.9289,313.1867,-1.6917000000000005e-07,-2.91e-06,0.0,0 STARLINK-3399,1 51121U 22005T   22254.15076957 -.00000291  00000-0 -16917-6 0  9998,2 51121  53.2166 255.2271 0001956  46.9289 313.1867 15.08847976 37428,6917.856,95.437,541.0740000000002,538.368,0.0
51121.0,STARLINK-3399,PAYLOAD,2022-09-11 09:58:39,15.08842294,0.0001991,53.2167,254.0376,44.3824,315.7328,-5.0477e-05,-1.092e-05,0.0,0 STARLINK-3399,1 51121U 22005T   22254.41573389 -.00001092  00000-0 -50477-4 0  9995,2 51121  53.2167 254.0376 0001991  44.3824 315.7328 15.08842294 36357,6917.873000000001,95.437,541.116,538.361,0.0
51121.0,STARLINK-3399,PAYLOAD,2022-09-12 03:27:52,15.08860634,0.0001838,53.2167,250.7663,42.9008,317.2128,-0.00011754,-2.159e-05,0.0,0 STARLINK-3399,1 51121U 22005T   22255.14436341 -.00002159  00000-0 -11754-3 0  9991,2 51121  53.2167 250.7663 0001838  42.9008 317.2128 15.08860634 37575,6917.816999999999,95.436,540.9540000000002,538.411,0.0
51121.0,STARLINK-3399,PAYLOAD,2022-09-12 09:49:26,15.08837201,0.0001935,53.2166,249.5773,43.8155,316.2990000000001,-3.909e-05,-9.1e-06,0.0,0 STARLINK-3399,1 51121U 22005T   22255.40933402 -.00000910  00000-0 -39090-4 0  9997,2 51121  53.2166 249.5773 0001935  43.8155 316.2990 15.08837201 36505,6917.889,95.438,541.0930000000002,538.415,0.0
51121.0,STARLINK-3399,PAYLOAD,2022-09-12 16:10:59,15.08837849,0.0001942,53.2165,248.3881,41.5472,318.5667,-5.2644e-05,-1.126e-05,0.0,0 STARLINK-3399,1 51121U 22005T   22255.67429463 -.00001126  00000-0 -52644-4 0  9993,2 51121  53.2165 248.3881 0001942  41.5472 318.5667 15.08837849 36544,6917.887,95.438,541.095,538.409,0.0
